start=new Date('2021-09-17T00:00:00.000Z').valueOf();
sats=[{"DECAY_DATE":null,"INCLINATION":"53.0533","EPHEMERIS_TYPE":"0","REV_AT_EPOCH":"6244","MEAN_MOTION_DOT":"0.00001044","NORAD_CAT_ID":"46045","TIME_SYSTEM":"UTC","MEAN_ANOMALY":"289.3065","PERIAPSIS":"546.739","FILE":"3117438","CENTER_NAME":"EARTH","BSTAR":"0.00008894600000","ECCENTRICITY":"0.00007020","EPOCH":"2021-09-16T17:32:39.804864","ELEMENT_SET_NO":"999","GP_ID":"184849816","COUNTRY_CODE":"US","MEAN_MOTION":"15.06396368","SEMIMAJOR_AXIS":"6925.360","ARG_OF_PERICENTER":"70.8000","OBJECT_TYPE":"PAYLOAD","OBJECT_NAME":"STARLINK-1591","RA_OF_ASC_NODE":"266.2436","SITE":"AFETR","REF_FRAME":"TEME","APOAPSIS":"547.711","TLE_LINE1":"1 46045U 20055U   21259.73101626  .00001044  00000-0  88946-4 0  9994","PERIOD":"95.592","MEAN_MOTION_DDOT":"0.0000000000000","OBJECT_ID":"2020-055U","MEAN_ELEMENT_THEORY":"SGP4","RCS_SIZE":"LARGE","LAUNCH_DATE":"2020-08-07","TLE_LINE2":"2 46045  53.0533 266.2436 0000702  70.8000 289.3065 15.06396368 62449","CLASSIFICATION_TYPE":"U"},{"REV_AT_EPOCH":"6261","DECAY_DATE":null,"INCLINATION":"53.0537","EPHEMERIS_TYPE":"0","MEAN_MOTION_DOT":"0.00308388","NORAD_CAT_ID":"46046","TIME_SYSTEM":"UTC","PERIAPSIS":"493.608","MEAN_ANOMALY":"291.2942","CENTER_NAME":"EARTH","FILE":"3117438","BSTAR":"0.01227700000000","ECCENTRICITY":"0.00028710","EPOCH":"2021-09-16T22:15:28.757952","ELEMENT_SET_NO":"999","GP_ID":"184850568","COUNTRY_CODE":"US","MEAN_MOTION":"15.23404859","SEMIMAJOR_AXIS":"6873.717","OBJECT_TYPE":"PAYLOAD","ARG_OF_PERICENTER":"68.8361","OBJECT_NAME":"STARLINK-1514","RA_OF_ASC_NODE":"254.5471","APOAPSIS":"497.555","SITE":"AFETR","REF_FRAME":"TEME","TLE_LINE1":"1 46046U 20055V   21259.92741618  .00308388  00000-0  12277-1 0  9999","MEAN_MOTION_DDOT":"0.0000000000000","OBJECT_ID":"2020-055V","PERIOD":"94.525","RCS_SIZE":"LARGE","MEAN_ELEMENT_THEORY":"SGP4","LAUNCH_DATE":"2020-08-07","TLE_LINE2":"2 46046  53.0537 254.5471 0002871  68.8361 291.2942 15.23404859 62618","CLASSIFICATION_TYPE":"U"},{"ECCENTRICITY":"0.00011070","EPOCH":"2021-09-16T16:24:59.537952","ELEMENT_SET_NO":"999","PERIAPSIS":"546.457","MEAN_ANOMALY":"289.7246","BSTAR":"0.00007217600000","CENTER_NAME":"EARTH","FILE":"3117438","MEAN_MOTION_DOT":"0.00000794","REV_AT_EPOCH":"6259","DECAY_DATE":null,"EPHEMERIS_TYPE":"0","INCLINATION":"53.0544","TIME_SYSTEM":"UTC","NORAD_CAT_ID":"46047","MEAN_ELEMENT_THEORY":"SGP4","RCS_SIZE":"LARGE","OBJECT_ID":"2020-055W","MEAN_MOTION_DDOT":"0.0000000000000","PERIOD":"95.592","CLASSIFICATION_TYPE":"U","TLE_LINE2":"2 46047  53.0544 256.4537 0001107  70.3862 289.7246 15.06396787 62593","LAUNCH_DATE":"2020-08-07","RA_OF_ASC_NODE":"256.4537","OBJECT_NAME":"STARLINK-1524","OBJECT_TYPE":"PAYLOAD","ARG_OF_PERICENTER":"70.3862","TLE_LINE1":"1 46047U 20055W   21259.68402243  .00000794  00000-0  72176-4 0  9998","APOAPSIS":"547.990","REF_FRAME":"TEME","SITE":"AFETR","SEMIMAJOR_AXIS":"6925.358","GP_ID":"184851313","MEAN_MOTION":"15.06396787","COUNTRY_CODE":"US"},{"ELEMENT_SET_NO":"999","EPOCH":"2021-09-16T06:46:26.762880","ECCENTRICITY":"0.00011220","BSTAR":"0.00008035400000","CENTER_NAME":"EARTH","FILE":"3117121","PERIAPSIS":"546.446","MEAN_ANOMALY":"285.3881","TIME_SYSTEM":"UTC","NORAD_CAT_ID":"46048","MEAN_MOTION_DOT":"0.00000916","REV_AT_EPOCH":"6251","INCLINATION":"53.0525","DECAY_DATE":null,"EPHEMERIS_TYPE":"0","CLASSIFICATION_TYPE":"U","TLE_LINE2":"2 46048  53.0525 258.2587 0001122  74.7232 285.3881 15.06397033 62518","LAUNCH_DATE":"2020-08-07","MEAN_ELEMENT_THEORY":"SGP4","RCS_SIZE":"LARGE","OBJECT_ID":"2020-055X","MEAN_MOTION_DDOT":"0.0000000000000","PERIOD":"95.592","TLE_LINE1":"1 46048U 20055X   21259.28225420  .00000916  00000-0  80354-4 0  9998","APOAPSIS":"548.000","SITE":"AFETR","REF_FRAME":"TEME","RA_OF_ASC_NODE":"258.2587","OBJECT_TYPE":"PAYLOAD","OBJECT_NAME":"STARLINK-1527","ARG_OF_PERICENTER":"74.7232","SEMIMAJOR_AXIS":"6925.358","MEAN_MOTION":"15.06397033","COUNTRY_CODE":"US","GP_ID":"184819361"},{"SEMIMAJOR_AXIS":"6925.386","GP_ID":"184819611","COUNTRY_CODE":"US","MEAN_MOTION":"15.06387638","RCS_SIZE":"LARGE","MEAN_ELEMENT_THEORY":"SGP4","PERIOD":"95.593","MEAN_MOTION_DDOT":"0.0000000000000","OBJECT_ID":"2020-055Y","CLASSIFICATION_TYPE":"U","LAUNCH_DATE":"2020-08-07","TLE_LINE2":"2 46049  53.0538 257.6772 0001089  66.6251 293.4852 15.06387638 62568","RA_OF_ASC_NODE":"257.6772","OBJECT_TYPE":"PAYLOAD","OBJECT_NAME":"STARLINK-1530","ARG_OF_PERICENTER":"66.6251","TLE_LINE1":"1 46049U 20055Y   21259.41127229  .00000837  00000-0  75064-4 0  9996","SITE":"AFETR","REF_FRAME":"TEME","APOAPSIS":"548.006","MEAN_ANOMALY":"293.4852","PERIAPSIS":"546.497","BSTAR":"0.00007506400000","FILE":"3117121","CENTER_NAME":"EARTH","MEAN_MOTION_DOT":"0.00000837","DECAY_DATE":null,"INCLINATION":"53.0538","EPHEMERIS_TYPE":"0","REV_AT_EPOCH":"6256","TIME_SYSTEM":"UTC","NORAD_CAT_ID":"46049","ECCENTRICITY":"0.00010890","EPOCH":"2021-09-16T09:52:13.925856","ELEMENT_SET_NO":"999"},{"ECCENTRICITY":"0.00020330","EPOCH":"2021-09-16T16:44:45.356352","ELEMENT_SET_NO":"999","MEAN_ANOMALY":"240.0673","PERIAPSIS":"494.792","BSTAR":"0.01278500000000","FILE":"3117438","CENTER_NAME":"EARTH","MEAN_MOTION_DOT":"0.00319751","INCLINATION":"53.0529","DECAY_DATE":null,"EPHEMERIS_TYPE":"0","REV_AT_EPOCH":"6261","TIME_SYSTEM":"UTC","NORAD_CAT_ID":"46050","RCS_SIZE":"LARGE","MEAN_ELEMENT_THEORY":"SGP4","PERIOD":"94.538","MEAN_MOTION_DDOT":"0.0000000000000","OBJECT_ID":"2020-055Z","CLASSIFICATION_TYPE":"U","TLE_LINE2":"2 46050  53.0529 255.5959 0002033 120.0525 240.0673 15.23202903 62618","LAUNCH_DATE":"2020-08-07","RA_OF_ASC_NODE":"255.5959","OBJECT_TYPE":"PAYLOAD","ARG_OF_PERICENTER":"120.0525","OBJECT_NAME":"STARLINK-1535","TLE_LINE1":"1 46050U 20055Z   21259.69774718  .00319751  00000-0  12785-1 0  9995","REF_FRAME":"TEME","SITE":"AFETR","APOAPSIS":"497.587","SEMIMAJOR_AXIS":"6874.324","GP_ID":"184851068","COUNTRY_CODE":"US","MEAN_MOTION":"15.23202903"},{"OBJECT_TYPE":"PAYLOAD","OBJECT_NAME":"STARLINK-1540","ARG_OF_PERICENTER":"66.7365","RA_OF_ASC_NODE":"256.3232","APOAPSIS":"548.066","REF_FRAME":"TEME","SITE":"AFETR","TLE_LINE1":"1 46051U 20055AA  21259.71350842 -.00000926  00000-0 -43297-4 0  9995","MEAN_MOTION_DDOT":"0.0000000000000","OBJECT_ID":"2020-055AA","PERIOD":"95.593","MEAN_ELEMENT_THEORY":"SGP4","RCS_SIZE":"LARGE","TLE_LINE2":"2 46051  53.0532 256.3232 0001205  66.7365 293.3751 15.06394049 62616","LAUNCH_DATE":"2020-08-07","CLASSIFICATION_TYPE":"U","GP_ID":"184850814","MEAN_MOTION":"15.06394049","COUNTRY_CODE":"US","SEMIMAJOR_AXIS":"6925.367","ECCENTRICITY":"0.00012050","EPOCH":"2021-09-16T17:07:27.127488","ELEMENT_SET_NO":"999","REV_AT_EPOCH":"6261","EPHEMERIS_TYPE":"0","DECAY_DATE":null,"INCLINATION":"53.0532","MEAN_MOTION_DOT":"-0.00000926","NORAD_CAT_ID":"46051","TIME_SYSTEM":"UTC","PERIAPSIS":"546.397","MEAN_ANOMALY":"293.3751","CENTER_NAME":"EARTH","FILE":"3117438","BSTAR":"-0.00004329700000"},{"EPOCH":"2021-09-16T16:46:13.400544","ECCENTRICITY":"0.00009280","ELEMENT_SET_NO":"999","PERIAPSIS":"546.590","MEAN_ANOMALY":"284.7869","BSTAR":"0.00007094300000","CENTER_NAME":"EARTH","FILE":"3117438","MEAN_MOTION_DOT":"0.00000775","REV_AT_EPOCH":"6257","DECAY_DATE":null,"INCLINATION":"53.0529","EPHEMERIS_TYPE":"0","TIME_SYSTEM":"UTC","NORAD_CAT_ID":"46052","MEAN_ELEMENT_THEORY":"SGP4","RCS_SIZE":"LARGE","MEAN_MOTION_DDOT":"0.0000000000000","OBJECT_ID":"2020-055AB","PERIOD":"95.593","CLASSIFICATION_TYPE":"U","LAUNCH_DATE":"2020-08-07","TLE_LINE2":"2 46052  53.0529 256.3892 0000928  75.3223 284.7869 15.06393705 62572","RA_OF_ASC_NODE":"256.3892","OBJECT_NAME":"STARLINK-1541","OBJECT_TYPE":"PAYLOAD","ARG_OF_PERICENTER":"75.3223","TLE_LINE1":"1 46052U 20055AB  21259.69876621  .00000775  00000-0  70943-4 0  9999","APOAPSIS":"547.876","REF_FRAME":"TEME","SITE":"AFETR","SEMIMAJOR_AXIS":"6925.368","GP_ID":"184850067","COUNTRY_CODE":"US","MEAN_MOTION":"15.06393705"},{"MEAN_MOTION":"15.06402140","COUNTRY_CODE":"US","GP_ID":"184849817","SEMIMAJOR_AXIS":"6925.342","TLE_LINE1":"1 46053U 20055AC  21259.70244099  .00001053  00000-0  89589-4 0  9996","APOAPSIS":"548.043","REF_FRAME":"TEME","SITE":"AFETR","RA_OF_ASC_NODE":"256.3720","OBJECT_NAME":"STARLINK-1543","OBJECT_TYPE":"PAYLOAD","ARG_OF_PERICENTER":"83.3911","CLASSIFICATION_TYPE":"U","TLE_LINE2":"2 46053  53.0524 256.3720 0001207  83.3911 276.7215 15.06402140 62606","LAUNCH_DATE":"2020-08-07","MEAN_ELEMENT_THEORY":"SGP4","RCS_SIZE":"LARGE","OBJECT_ID":"2020-055AC","MEAN_MOTION_DDOT":"0.0000000000000","PERIOD":"95.592","TIME_SYSTEM":"UTC","NORAD_CAT_ID":"46053","MEAN_MOTION_DOT":"0.00001053","REV_AT_EPOCH":"6260","DECAY_DATE":null,"INCLINATION":"53.0524","EPHEMERIS_TYPE":"0","BSTAR":"0.00008958900000","CENTER_NAME":"EARTH","FILE":"3117438","PERIAPSIS":"546.371","MEAN_ANOMALY":"276.7215","ELEMENT_SET_NO":"999","ECCENTRICITY":"0.00012070","EPOCH":"2021-09-16T16:51:30.901536"},{"OBJECT_TYPE":"PAYLOAD","OBJECT_NAME":"STARLINK-1548","ARG_OF_PERICENTER":"79.0940","RA_OF_ASC_NODE":"256.3203","APOAPSIS":"547.866","SITE":"AFETR","REF_FRAME":"TEME","TLE_LINE1":"1 46054U 20055AD  21259.70982766  .00000686  00000-0  64935-4 0  9996","MEAN_MOTION_DDOT":"0.0000000000000","OBJECT_ID":"2020-055AD","PERIOD":"95.593","MEAN_ELEMENT_THEORY":"SGP4","RCS_SIZE":"LARGE","TLE_LINE2":"2 46054  53.0542 256.3203 0000900  79.0940 281.0150 15.06390461 62605","LAUNCH_DATE":"2020-08-07","CLASSIFICATION_TYPE":"U","GP_ID":"184850569","MEAN_MOTION":"15.06390461","COUNTRY_CODE":"US","SEMIMAJOR_AXIS":"6925.378","ECCENTRICITY":"0.00009000","EPOCH":"2021-09-16T17:02:09.109824","ELEMENT_SET_NO":"999","REV_AT_EPOCH":"6260","INCLINATION":"53.0542","DECAY_DATE":null,"EPHEMERIS_TYPE":"0","MEAN_MOTION_DOT":"0.00000686","NORAD_CAT_ID":"46054","TIME_SYSTEM":"UTC","PERIAPSIS":"546.620","MEAN_ANOMALY":"281.0150","CENTER_NAME":"EARTH","FILE":"3117438","BSTAR":"0.00006493500000"}];
